     2              NAVIGATION DATA                         RINEX VERSION / TYPE
CCRINEXN V1.6.0 UX  CDDIS               03-DEC-16 17:31     PGM / RUN BY / DATE 
IGS BROADCAST EPHEMERIS FILE                                COMMENT             
    0.1024D-07 -0.1490D-07 -0.5960D-07  0.1192D-06          ION ALPHA           
    0.9830D+05 -0.1475D+06 -0.1966D+06  0.8520D+06          ION BETA            
    0.000000000000D+00 0.000000000000D+00   589824     1925 DELTA-UTC: A0,A1,T,W
    17                                                      LEAP SECONDS        
                                                            END OF HEADER       
27 16 12  2  8  0  0.0 0.173489097506D-03 0.534328137292D-11 0.000000000000D+00
    0.150000000000D+02-0.116937500000D+03 0.426339187310D-08 0.252186251349D+01
   -0.598840415478D-05 0.397936569061D-02 0.534020364284D-05 0.515366025353D+04
    0.460800000000D+06-0.465661287308D-07-0.318000490614D+00-0.242143869400D-07
    0.973528661822D+00 0.283656250000D+03 0.305083239964D+00-0.796604610351D-08
   -0.197508227010D-09 0.100000000000D+01 0.192500000000D+04 0.000000000000D+00
    0.200000000000D+01 0.000000000000D+00 0.139698386192D-08 0.150000000000D+02
    0.453600000000D+06 0.400000000000D+01 0.000000000000D+00 0.000000000000D+00
28 16 12  2  8  0  0.0 0.571302138269D-03 0.272848410532D-11 0.000000000000D+00
    0.150000000000D+02 0.246875000000D+02 0.407588406265D-08-0.295760177153D+01
    0.122562050819D-05 0.201331652934D-01 0.100582838058D-05 0.515363898277D+04
    0.460800000000D+06 0.370666384697D-06-0.128175516707D+01 0.100582838059D-06
    0.988935364556D+00 0.372156250000D+03-0.159607168325D+01-0.782568311397D-08
    0.165364030933D-09 0.100000000000D+01 0.192500000000D+04 0.000000000000D+00
    0.200000000000D+01 0.000000000000D+00-0.111758708954D-07 0.150000000000D+02
    0.453600000000D+06 0.400000000000D+01 0.000000000000D+00 0.000000000000D+00
 1 16 12  2  9 59 44.0 0.423393212259D-04 0.125055521494D-11 0.000000000000D+00
    0.120000000000D+02-0.431875000000D+02 0.430910806308D-08 0.136723535614D+01
   -0.209361314774D-05 0.601744325832D-02 0.107549130917D-04 0.515370282936D+04
    0.467984000000D+06-0.149011611938D-07 0.739075255942D+00 0.147148966789D-06
    0.965949088685D+00 0.174718750000D+03 0.562424847687D+00-0.782746890264D-08
    0.310727228751D-09 0.100000000000D+01 0.192500000000D+04 0.000000000000D+00
    0.200000000000D+01 0.000000000000D+00 0.512227416039D-08 0.120000000000D+02
    0.465510000000D+06 0.400000000000D+01 0.000000000000D+00 0.000000000000D+00
12 16 12  2  9 59 44.0 0.389480032027D-03 0.000000000000D+00 0.000000000000D+00
    0.220000000000D+02 0.270625000000D+02 0.419053169532D-08 0.139198186917D+00
    0.138767063618D-05 0.612571171950D-02 0.164657831192D-05 0.515361905670D+04
    0.467984000000D+06 0.447034835815D-07-0.130540017447D+01 0.117346644402D-06
    0.989686732448D+00 0.367750000000D+03 0.780170656782D+00-0.820248452355D-08
    0.137505727665D-09 0.100000000000D+01 0.192500000000D+04 0.000000000000D+00
    0.200000000000D+01 0.000000000000D+00-0.125728547573D-07 0.220000000000D+02
    0.465450000000D+06 0.400000000000D+01 0.000000000000D+00 0.000000000000D+00
17 16 12  2  9 59 44.0-0.197945162654D-03 0.909494701773D-12 0.000000000000D+00
    0.200000000000D+01-0.123937500000D+03 0.407838416679D-08-0.284491660341D+01
   -0.636279582977D-05 0.115494300844D-01 0.594556331634D-05 0.515378427505D+04
    0.467984000000D+06 0.221654772759D-06-0.267080294338D+00-0.912696123123D-07
    0.978623873830D+00 0.271656250000D+03-0.190609958778D+01-0.774817988565D-08
   -0.132148361653D-09 0.100000000000D+01 0.192500000000D+04 0.000000000000D+00
    0.200000000000D+01 0.000000000000D+00-0.107102096081D-07 0.200000000000D+01
    0.465210000000D+06 0.400000000000D+01 0.000000000000D+00 0.000000000000D+00
18 16 12  2  9 59 44.0 0.580784399062D-03 0.306954461848D-11 0.000000000000D+00
    0.100000000000D+02 0.181250000000D+02 0.578095527004D-08-0.123988003967D+01
    0.115670263767D-05 0.173079650849D-01 0.531971454620D-05 0.515372022057D+04
    0.467984000000D+06 0.782310962677D-07 0.174154965522D+01 0.484287738800D-06
    0.924732131056D+00 0.259125000000D+03-0.184837928160D+01-0.868643290630D-08
    0.821462758927D-10 0.100000000000D+01 0.192500000000D+04 0.000000000000D+00
    0.200000000000D+01 0.000000000000D+00-0.111758708954D-07 0.100000000000D+02
    0.467010000000D+06 0.000000000000D+00 0.000000000000D+00 0.000000000000D+00
19 16 12  2  9 59 44.0-0.518906395882D-03 0.795807864051D-12 0.000000000000D+00
    0.100000000000D+02-0.110937500000D+03 0.418767443345D-08 0.337299276657D+00
   -0.571273267269D-05 0.102746235207D-01 0.668317079544D-05 0.515364180183D+04
    0.467984000000D+06-0.875443220139D-07-0.218829195023D+00 0.115483999252D-06
    0.975820690186D+00 0.260937500000D+03 0.893575051022D+00-0.806390732268D-08
   -0.210008747707D-09 0.100000000000D+01 0.192500000000D+04 0.000000000000D+00
    0.200000000000D+01 0.000000000000D+00-0.149011611938D-07 0.100000000000D+02
    0.467700000000D+06 0.400000000000D+01 0.000000000000D+00 0.000000000000D+00
21 16 12  2  9 59 44.0-0.529974233359D-03 0.113686837722D-11 0.000000000000D+00
    0.130000000000D+02-0.275000000000D+02 0.504235289138D-08-0.307320657596D+00
   -0.136531889439D-05 0.234761196189D-01 0.109747052193D-04 0.515378622436D+04
    0.467984000000D+06-0.271946191788D-06 0.700100009610D+00 0.173225998878D-06
    0.938113850882D+00 0.159781250000D+03-0.173810785224D+01-0.860535844772D-08
    0.402516766439D-09 0.100000000000D+01 0.192500000000D+04 0.000000000000D+00
    0.200000000000D+01 0.000000000000D+00-0.977888703346D-08 0.130000000000D+02
    0.464760000000D+06 0.400000000000D+01 0.000000000000D+00 0.000000000000D+00
 1 16 12  2 10  0  0.0 0.423393212259D-04 0.125055521494D-11 0.000000000000D+00
    0.600000000000D+02-0.431875000000D+02 0.430910806308D-08 0.136956885824D+01
   -0.209361314774D-05 0.601743871812D-02 0.107549130917D-04 0.515370284462D+04
    0.468000000000D+06-0.149011611938D-07 0.739075108188D+00 0.147148966789D-06
    0.965949096000D+00 0.174718750000D+03 0.562424963257D+00-0.782746890264D-08
    0.310727228751D-09 0.100000000000D+01 0.192500000000D+04 0.000000000000D+00
    0.200000000000D+01 0.000000000000D+00 0.512227416039D-08 0.600000000000D+02
    0.464430000000D+06 0.400000000000D+01 0.000000000000D+00 0.000000000000D+00
 2 16 12  2 10  0  0.0 0.516826286912D-03-0.579802872380D-11 0.000000000000D+00
    0.150000000000D+02-0.451250000000D+02 0.463162149706D-08 0.183596004192D+01
   -0.257231295109D-05 0.162185726222D-01 0.107530504465D-04 0.515369242096D+04
    0.468000000000D+06-0.245869159698D-06 0.689477354745D+00-0.381842255592D-06
    0.944836872317D+00 0.167500000000D+03-0.206166440771D+01-0.793818780024D-08
    0.340014162955D-09 0.100000000000D+01 0.192500000000D+04 0.000000000000D+00
    0.200000000000D+01 0.000000000000D+00-0.200234353542D-07 0.150000000000D+02
    0.465630000000D+06 0.400000000000D+01 0.000000000000D+00 0.000000000000D+00
 3 16 12  2 10  0  0.0-0.100988894701D-03-0.170530256582D-11 0.000000000000D+00
    0.190000000000D+02 0.121875000000D+02 0.493734851753D-08-0.336029781218D-01
    0.597909092903D-06 0.384756480344D-03 0.573880970478D-05 0.515356062317D+04
    0.468000000000D+06 0.931322574616D-08 0.178118607616D+01-0.931322574616D-08
    0.959008007607D+00 0.265906250000D+03 0.888298274789D+00-0.813069581897D-08
    0.140720147273D-09 0.100000000000D+01 0.192500000000D+04 0.000000000000D+00
    0.200000000000D+01 0.000000000000D+00 0.186264514923D-08 0.190000000000D+02
    0.462420000000D+06 0.400000000000D+01 0.000000000000D+00 0.000000000000D+00
 4 16 12  2 10  0  0.0 0.207959674299D-04 0.306954461848D-11 0.000000000000D+00
    0.730000000000D+02 0.171875000000D+01 0.427946397114D-08-0.138086705648D+01
    0.134110450745D-06 0.830114760902D-02 0.964663922787D-05 0.515374134636D+04
    0.468000000000D+06-0.173225998878D-06 0.294088299512D+01 0.279396772385D-07
    0.966241069579D+00 0.199843750000D+03-0.942130715252D+00-0.790497213096D-08
   -0.430017911972D-09 0.100000000000D+01 0.192500000000D+04 0.000000000000D+00
    0.280000000000D+01 0.630000000000D+02-0.419095158577D-08 0.730000000000D+02
    0.460800000000D+06 0.400000000000D+01 0.000000000000D+00 0.000000000000D+00
 5 16 12  2 10  0  0.0-0.745630823076D-04 0.227373675443D-11 0.000000000000D+00
    0.260000000000D+02 0.167500000000D+02 0.519557374901D-08-0.197965894019D+01
    0.836327672005D-06 0.489355030004D-02 0.550970435142D-05 0.515363438797D+04
    0.468000000000D+06 0.372529029846D-07 0.176673927443D+01-0.242143869400D-07
    0.946016658694D+00 0.266062500000D+03 0.561525568537D+00-0.828034529832D-08
    0.196436755751D-09 0.100000000000D+01 0.192500000000D+04 0.000000000000D+00
    0.200000000000D+01 0.000000000000D+00-0.107102096081D-07 0.260000000000D+02
    0.460800000000D+06 0.000000000000D+00 0.000000000000D+00 0.000000000000D+00
 6 16 12  2 10  0  0.0 0.280624255538D-03 0.500222085975D-11 0.000000000000D+00
    0.320000000000D+02-0.343125000000D+02 0.419981779641D-08 0.181064025225D+01
   -0.182352960110D-05 0.362657476217D-03 0.103656202555D-04 0.515357819367D+04
    0.468000000000D+06 0.558793544769D-08 0.730686478448D+00-0.242143869400D-07
    0.965758088638D+00 0.181531250000D+03-0.152056736077D+01-0.772675042160D-08
    0.314298806093D-09 0.100000000000D+01 0.192500000000D+04 0.000000000000D+00
    0.200000000000D+01 0.000000000000D+00 0.419095158577D-08 0.320000000000D+02
    0.462780000000D+06 0.400000000000D+01 0.000000000000D+00 0.000000000000D+00
